{
"type": "FeatureCollection",
"name": "Laham_btsKukar",
"crs": { "type": "name", "properties": { "name": "urn:ogc:def:crs:OGC:1.3:CRS84" } },
"features": [
{ "type": "Feature", "properties": { "Id": 0, "Length": 1973821.9115500001 }, "geometry": { "type": "LineString", "coordinates": [ [ 115.399859344282163, 0.356959454318146 ], [ 115.400553480814622, 0.357105588324979 ], [ 115.400882282330002, 0.357617057348894 ], [ 115.401284150848781, 0.357763191355727 ], [ 115.401905220377827, 0.357580523847186 ], [ 115.402270555394907, 0.357251722331812 ], [ 115.402599356910287, 0.357215188830104 ], [ 115.403183892937619, 0.357324789335228 ], [ 115.403731895463238, 0.357580523847186 ], [ 115.404352964992285, 0.357580523847186 ], [ 115.405156702029856, 0.357434389840353 ], [ 115.405668171053776, 0.35728825583352 ], [ 115.405960439067442, 0.35728825583352 ], [ 115.406398841087949, 0.356886387314729 ], [ 115.406946843613568, 0.356594119301063 ], [ 115.407275645128948, 0.356374918290814 ], [ 115.407787114152853, 0.356265317785689 ], [ 115.408298583176773, 0.356521052297647 ], [ 115.409102320214359, 0.356594119301063 ], [ 115.409321521224598, 0.356301851287397 ], [ 115.409504188733138, 0.355936516270315 ], [ 115.409832990248518, 0.355534647751524 ], [ 115.410344459272437, 0.354950111724192 ], [ 115.410673260787803, 0.354548243205401 ], [ 115.410709794289517, 0.354073307683194 ], [ 115.41078286129293, 0.353598372160987 ], [ 115.41078286129293, 0.353196503642196 ], [ 115.410892461798056, 0.352356233102906 ], [ 115.41078286129293, 0.351808230577282 ], [ 115.411038595804897, 0.351406362058492 ], [ 115.41111166280831, 0.350967960037993 ], [ 115.41111166280831, 0.350127689498703 ], [ 115.411002062303183, 0.349360485962829 ], [ 115.41074632779123, 0.348702882932081 ], [ 115.41074632779123, 0.348045279901332 ], [ 115.41074632779123, 0.347424210372292 ], [ 115.41111166280831, 0.34705887535521 ], [ 115.411440464323675, 0.346510872829586 ], [ 115.411513531327103, 0.345743669293712 ], [ 115.411586598330516, 0.344866865252714 ], [ 115.411732732337342, 0.344245795723674 ], [ 115.411878866344182, 0.34369779319805 ], [ 115.412061533852722, 0.343222857675843 ], [ 115.412272596102085, 0.342404577032676 ], [ 115.412670014006167, 0.342418762896998 ], [ 115.413705541429593, 0.342528721143386 ], [ 115.414399677962052, 0.342346053634845 ], [ 115.414728479477418, 0.341871118112638 ], [ 115.414838079982545, 0.34139618259043 ], [ 115.414947680487671, 0.340884713566515 ], [ 115.414691945975719, 0.340336711040891 ], [ 115.414545811968878, 0.339715641511851 ], [ 115.414363144460339, 0.339277239491352 ], [ 115.4141439434501, 0.338729236965728 ], [ 115.414290077456926, 0.338290834945229 ], [ 115.414436211463752, 0.337815899423022 ], [ 115.413961275941546, 0.337487097907647 ], [ 115.413559407422767, 0.33723136339569 ], [ 115.41312100540226, 0.337121762890565 ], [ 115.413047938398847, 0.336683360870066 ], [ 115.413267139409101, 0.336208425347859 ], [ 115.413888208938133, 0.335916157334193 ], [ 115.414217010453513, 0.335477755313694 ], [ 115.414399677962052, 0.334783618781237 ], [ 115.414253543955212, 0.334126015750488 ], [ 115.414034342944973, 0.333431879218031 ], [ 115.413559407422767, 0.333322278712907 ], [ 115.413084471900547, 0.333431879218031 ], [ 115.412609536378341, 0.332847343190699 ], [ 115.411805799340769, 0.332664675682158 ], [ 115.411659665333929, 0.332299340665076 ], [ 115.411367397320262, 0.331860938644576 ], [ 115.41092899529977, 0.331568670630911 ], [ 115.410344459272437, 0.330984134603578 ], [ 115.410052191258771, 0.33010733056258 ], [ 115.409832990248518, 0.329376660528415 ], [ 115.409723389743391, 0.32864599049425 ], [ 115.409869523750231, 0.327915320460085 ], [ 115.410161791763898, 0.327476918439586 ], [ 115.410052191258771, 0.326928915913962 ], [ 115.409942590753644, 0.326271312883214 ], [ 115.410125258262184, 0.325613709852465 ], [ 115.41060019378439, 0.325248374835383 ], [ 115.411148196310009, 0.324992640323425 ], [ 115.411623131832229, 0.324700372309759 ], [ 115.412207667859562, 0.32426197028926 ], [ 115.412828737388594, 0.324115836282427 ], [ 115.413559407422767, 0.32426197028926 ], [ 115.4141439434501, 0.324554238302926 ], [ 115.414728479477418, 0.324700372309759 ], [ 115.415459149511591, 0.324809972814884 ], [ 115.41600715203721, 0.324992640323425 ], [ 115.416372487054289, 0.325248374835383 ], [ 115.416920489579923, 0.325284908337091 ], [ 115.417468492105542, 0.324956106821717 ], [ 115.417651159614081, 0.324517704801218 ], [ 115.417870360624335, 0.324152369784135 ], [ 115.418381829648254, 0.324152369784135 ], [ 115.418820231668747, 0.324006235777302 ], [ 115.419349967443523, 0.323860101770469 ], [ 115.419788369464015, 0.323567833756803 ], [ 115.420190237982808, 0.32364090076022 ], [ 115.420920908016967, 0.323604367258511 ], [ 115.421286243034061, 0.323275565743137 ], [ 115.421870779061393, 0.323275565743137 ], [ 115.422163047075031, 0.323713967763636 ], [ 115.422674516098951, 0.324006235777302 ], [ 115.423259052126284, 0.324554238302926 ], [ 115.423953188658743, 0.32510224082855 ], [ 115.424793459198028, 0.32550410934734 ], [ 115.425560662733901, 0.326125178876381 ], [ 115.425633729737328, 0.327148116924212 ], [ 115.425414528727075, 0.328171054972043 ], [ 115.425231861218535, 0.329047859013041 ], [ 115.425414528727075, 0.329559328036956 ], [ 115.425414528727075, 0.330180397565997 ], [ 115.425085727211695, 0.330509199081371 ], [ 115.425049193709995, 0.331020668105287 ], [ 115.425451062228774, 0.331751338139452 ], [ 115.426181732262947, 0.332189740159951 ], [ 115.426693201286866, 0.332226273661659 ], [ 115.426985469300533, 0.331860938644576 ], [ 115.427131603307359, 0.331386003122369 ], [ 115.427277737314199, 0.33094760110187 ], [ 115.427679605832978, 0.330618799586496 ], [ 115.428300675362024, 0.330655333088204 ], [ 115.42895827839277, 0.330874534098454 ], [ 115.429579347921816, 0.330618799586496 ], [ 115.430163883949149, 0.330472665579663 ], [ 115.430346551457689, 0.330874534098454 ], [ 115.430675352973054, 0.331386003122369 ], [ 115.431332956003814, 0.331495603627494 ], [ 115.431771358024307, 0.331093735108703 ], [ 115.432355894051639, 0.330691866589912 ], [ 115.433269231594352, 0.330363065074538 ], [ 115.433853767621684, 0.329924663054039 ], [ 115.434219102638764, 0.32926706002329 ], [ 115.434657504659256, 0.328609456992542 ], [ 115.435461241696842, 0.328353722480584 ], [ 115.436009244222461, 0.327878786958377 ], [ 115.436484179744667, 0.326928915913962 ], [ 115.437178316277127, 0.326709714903713 ], [ 115.437762852304459, 0.326636647900296 ], [ 115.438274321328379, 0.326052111872964 ], [ 115.438676189847172, 0.325759843859298 ], [ 115.439260725874504, 0.325650243354173 ], [ 115.439991395908663, 0.325759843859298 ], [ 115.440941266953075, 0.326015578371256 ], [ 115.441310255320317, 0.326673181402005 ], [ 115.441931324849364, 0.327257717429337 ], [ 115.442296659866443, 0.327878786958377 ], [ 115.442698528385236, 0.328463322985709 ], [ 115.443392664917695, 0.328755590999375 ], [ 115.443977200945014, 0.328317188978876 ], [ 115.444561736972346, 0.327878786958377 ], [ 115.445292407006519, 0.327842253456669 ], [ 115.445986543538979, 0.328390255982292 ], [ 115.446753747074851, 0.328609456992542 ], [ 115.447776685122676, 0.328499856487417 ], [ 115.448690022665389, 0.328061454466918 ], [ 115.44949375970296, 0.327659585948127 ], [ 115.45018789623542, 0.327001982917379 ], [ 115.450808965764466, 0.326636647900296 ], [ 115.451466568795212, 0.326417446890047 ], [ 115.452233772331084, 0.326052111872964 ], [ 115.452672174351591, 0.325869444364423 ], [ 115.453147109873797, 0.326015578371256 ], [ 115.453585511894289, 0.326892382412254 ], [ 115.454023913914796, 0.327623052446419 ], [ 115.454389248931875, 0.328171054972043 ], [ 115.454973784959208, 0.328317188978876 ], [ 115.455521787484827, 0.32802492096521 ], [ 115.455996723007033, 0.327988387463502 ], [ 115.457019661054872, 0.328061454466918 ], [ 115.457896465095871, 0.328097987968626 ], [ 115.458667321981906, 0.327732652951544 ], [ 115.459434525517779, 0.327732652951544 ], [ 115.460019061545111, 0.32802492096521 ], [ 115.460530530569031, 0.3288651915045 ], [ 115.461261200603204, 0.329522794535248 ], [ 115.462174538145902, 0.329522794535248 ], [ 115.463087875688615, 0.32948626103354 ], [ 115.46359934471252, 0.329303593524999 ], [ 115.46411081373644, 0.32948626103354 ], [ 115.464585749258646, 0.329340127026707 ], [ 115.465133751784279, 0.328755590999375 ], [ 115.466010555825278, 0.328755590999375 ], [ 115.466704692357709, 0.328828658002791 ], [ 115.467070027374788, 0.328609456992542 ], [ 115.467398828890168, 0.32802492096521 ], [ 115.467435362391882, 0.327148116924212 ], [ 115.467764163907248, 0.326453980391755 ], [ 115.467946831415787, 0.325759843859298 ], [ 115.46834869993458, 0.325029173825133 ], [ 115.469079369968753, 0.324444637797801 ], [ 115.469408171484119, 0.323823568268761 ], [ 115.469846573504626, 0.322983297729471 ], [ 115.470358042528531, 0.322362228200431 ], [ 115.470613777040498, 0.321814225674807 ], [ 115.471198313067831, 0.321375823654308 ], [ 115.472002050105402, 0.321595024664557 ], [ 115.472623119634449, 0.321704625169682 ], [ 115.473207655661781, 0.321485424159433 ], [ 115.473572990678861, 0.320827821128684 ], [ 115.47412099320448, 0.32049901961331 ], [ 115.474705529231812, 0.32049901961331 ], [ 115.475143931252319, 0.320791287626976 ], [ 115.475290065259145, 0.321521957661141 ], [ 115.475363132262572, 0.322252627695306 ], [ 115.476057268795017, 0.323129431736304 ], [ 115.47678793882919, 0.323896635272177 ], [ 115.477335941354809, 0.324590771804634 ], [ 115.477957010883856, 0.325175307831966 ], [ 115.478249278897522, 0.325577176350757 ], [ 115.478212745395808, 0.326198245879797 ], [ 115.477555142365063, 0.326819315408838 ], [ 115.47697060633773, 0.327367317934461 ], [ 115.476239936303571, 0.327769186453252 ], [ 115.475801534283065, 0.328134521470335 ], [ 115.475399665764272, 0.328536389989125 ], [ 115.474997797245479, 0.328792124501083 ], [ 115.4745959287267, 0.329559328036956 ], [ 115.47444979471986, 0.330289998071122 ], [ 115.474303660713034, 0.331020668105287 ], [ 115.474194060207907, 0.332226273661659 ], [ 115.474230593709606, 0.333285745211198 ], [ 115.47444979471986, 0.333943348241947 ], [ 115.475034330747192, 0.334381750262446 ], [ 115.475728467279652, 0.334966286289778 ], [ 115.476422603812111, 0.335368154808569 ], [ 115.477014446539783, 0.335696956323943 ], [ 115.477489382061989, 0.33555082231711 ], [ 115.477891250580782, 0.33555082231711 ], [ 115.478220052096162, 0.335843090330776 ], [ 115.478220052096162, 0.336464159859816 ], [ 115.478402719604702, 0.336902561880315 ], [ 115.478768054621781, 0.336902561880315 ], [ 115.479425657652527, 0.336866028378607 ], [ 115.47997366017816, 0.336829494876899 ], [ 115.480631263208906, 0.336610293866649 ], [ 115.481398466744778, 0.336683360870066 ], [ 115.48201953627381, 0.336829494876899 ], [ 115.482640605802857, 0.337121762890565 ], [ 115.48304247432165, 0.33763323191448 ], [ 115.483188608328476, 0.338144700938396 ], [ 115.483627010348982, 0.338546569457187 ], [ 115.484467280888268, 0.33909457198281 ], [ 115.485197950922441, 0.339752175013559 ], [ 115.485928620956599, 0.340336711040891 ], [ 115.486257422471979, 0.340884713566515 ], [ 115.486111288465139, 0.34161538360068 ], [ 115.485855553953186, 0.342017252119471 ], [ 115.48556328593952, 0.342674855150219 ], [ 115.485599819441219, 0.343332458180968 ], [ 115.485965154458313, 0.343880460706591 ], [ 115.486695824492472, 0.344026594713424 ], [ 115.487353427523217, 0.343624726194634 ], [ 115.487901430048851, 0.343368991682676 ], [ 115.488376365571057, 0.343186324174135 ], [ 115.488997435100089, 0.343295924679259 ], [ 115.489691571632548, 0.343551659191217 ], [ 115.490170160504931, 0.34369779319805 ], [ 115.490608562525424, 0.34369779319805 ], [ 115.491193098552756, 0.343551659191217 ], [ 115.491777634580089, 0.343405525184384 ], [ 115.492069902593755, 0.343405525184384 ], [ 115.492508304614262, 0.343880460706591 ], [ 115.492800572627928, 0.344282329225382 ], [ 115.493494709160387, 0.34453806373734 ], [ 115.49393311118088, 0.344903398754422 ], [ 115.49426191269626, 0.345487934781755 ], [ 115.494663781215053, 0.345889803300545 ], [ 115.495577118757751, 0.345889803300545 ], [ 115.496307788791924, 0.345597535286879 ], [ 115.497257659836336, 0.345049532761255 ], [ 115.497732595358542, 0.344464996733923 ], [ 115.498536332396128, 0.34431886272709 ], [ 115.49966887094908, 0.344611130740756 ], [ 115.500253406976455, 0.344830331751006 ], [ 115.500691808996962, 0.34515913326638 ], [ 115.501495546034548, 0.345451401280046 ], [ 115.50226274957042, 0.345816736297129 ], [ 115.503103020109705, 0.345889803300545 ], [ 115.503614489133625, 0.346035937307378 ], [ 115.504016357652404, 0.346364738822753 ], [ 115.503906757147291, 0.34683967434496 ], [ 115.503614489133625, 0.347533810877417 ], [ 115.503395288123372, 0.348118346904749 ], [ 115.503322221119959, 0.348629815928664 ], [ 115.503577955631911, 0.349214351955996 ], [ 115.504272092164371, 0.349945021990161 ], [ 115.504747027686577, 0.350566091519202 ], [ 115.504893161693403, 0.351406362058491 ], [ 115.50478356118829, 0.352429300106322 ], [ 115.504673960683164, 0.353159970140488 ], [ 115.50478356118829, 0.353817573171236 ], [ 115.505221963208783, 0.354438642700276 ], [ 115.505587298225862, 0.355059712229317 ], [ 115.506244901256608, 0.355534647751524 ], [ 115.506610236273701, 0.356009583273731 ], [ 115.507121705297607, 0.356521052297647 ], [ 115.507048638294194, 0.356959454318146 ], [ 115.506683303277114, 0.357397856338645 ], [ 115.506354501761734, 0.35812852637281 ], [ 115.506610236273701, 0.358676528898434 ], [ 115.507121705297607, 0.359297598427474 ], [ 115.50734090630786, 0.359736000447973 ], [ 115.507706241324939, 0.360174402468472 ], [ 115.508509978362525, 0.360503203983846 ], [ 115.509057980888144, 0.361014673007762 ], [ 115.509496382908651, 0.361635742536802 ], [ 115.509459849406923, 0.3625125465778 ], [ 115.509496382908637, 0.363243216611965 ], [ 115.50942331590521, 0.364120020652963 ], [ 115.509642516915463, 0.364558422673462 ], [ 115.510263586444509, 0.364777623683712 ], [ 115.510921189475255, 0.364887224188837 ], [ 115.511578792506, 0.365252559205919 ], [ 115.512565197052126, 0.365727494728126 ], [ 115.513588135099951, 0.366019762741792 ], [ 115.51446493914095, 0.366640832270833 ], [ 115.514903341161457, 0.367408035806706 ], [ 115.515049475168283, 0.368504040857954 ], [ 115.515341743181949, 0.369271244393827 ], [ 115.515487877188789, 0.369819246919451 ], [ 115.515634011195615, 0.370403782946783 ], [ 115.516255080724662, 0.370842184967282 ], [ 115.516949217257121, 0.371024852475823 ], [ 115.51767988729128, 0.371390187492906 ], [ 115.518374023823739, 0.371682455506572 ], [ 115.518666291837405, 0.372157391028779 ], [ 115.519104693857898, 0.373034195069777 ], [ 115.51968922988523, 0.373436063588568 ], [ 115.520273765912563, 0.373472597090276 ], [ 115.520821768438182, 0.373837932107358 ], [ 115.521442837967228, 0.374605135643232 ], [ 115.522027373994561, 0.375226205172272 ], [ 115.522611910021894, 0.375993408708145 ], [ 115.52290417803556, 0.376468344230353 ], [ 115.52341564705948, 0.37694327975256 ], [ 115.523854049079972, 0.377637416285017 ], [ 115.523927116083385, 0.378331552817473 ], [ 115.523780982076559, 0.37924489036018 ], [ 115.52341564705948, 0.379829426387512 ], [ 115.523342580056052, 0.380742763930218 ], [ 115.523488714062893, 0.381290766455842 ], [ 115.523671381571432, 0.38216757049684 ], [ 115.523890582581686, 0.38278864002588 ], [ 115.524292451100479, 0.383153975042963 ], [ 115.52509618813805, 0.383044374537838 ], [ 115.525680724165383, 0.382898240531005 ], [ 115.526411394199556, 0.383227042046379 ], [ 115.526849796220048, 0.383811578073711 ], [ 115.527288198240555, 0.384359580599335 ], [ 115.527726600261047, 0.384724915616418 ], [ 115.528238069284953, 0.384761449118126 ], [ 115.529005272820825, 0.384432647602752 ], [ 115.52969940935327, 0.384615315111293 ], [ 115.530466612889157, 0.384323047097627 ], [ 115.531014615414776, 0.384176913090794 ], [ 115.531745285448935, 0.384359580599335 ], [ 115.532439421981394, 0.384871049623251 ], [ 115.533170092015567, 0.385638253159124 ], [ 115.533462360029233, 0.386259322688164 ], [ 115.533681561039472, 0.386807325213788 ], [ 115.533462360029233, 0.387647595753078 ], [ 115.53342582652752, 0.388487866292368 ], [ 115.533608494036059, 0.389108935821408 ], [ 115.534339164070232, 0.389401203835074 ], [ 115.535325568616344, 0.389656938347032 ], [ 115.53594663814539, 0.389145469323116 ], [ 115.536385040165882, 0.388634000299201 ], [ 115.537079176698342, 0.388560933295784 ], [ 115.537882913735928, 0.388670533800909 ], [ 115.538430916261547, 0.388999335316283 ], [ 115.539015452288879, 0.389437737336782 ], [ 115.539453854309386, 0.390058806865822 ], [ 115.539417320807672, 0.390752943398279 ], [ 115.539234653299133, 0.391556680435861 ], [ 115.539563454814513, 0.392470017978567 ], [ 115.539892256329878, 0.393273755016149 ], [ 115.540294124848671, 0.394114025555438 ], [ 115.540403725353798, 0.394844695589604 ], [ 115.540878660876004, 0.395210030606686 ], [ 115.541572797408463, 0.395283097610102 ], [ 115.542376534446035, 0.395575365623769 ], [ 115.542888003469955, 0.396050301145976 ], [ 115.543399472493874, 0.396306035657934 ], [ 115.543984008521207, 0.396306035657934 ], [ 115.544276276534873, 0.39575803313231 ], [ 115.544605078050239, 0.395429231616935 ], [ 115.545043480070746, 0.395136963603269 ], [ 115.545774150104904, 0.395429231616935 ], [ 115.546176018623697, 0.395904167139143 ], [ 115.546468286637364, 0.396232968654517 ], [ 115.547125889668109, 0.396890571685266 ], [ 115.547893093203982, 0.396927105186974 ], [ 115.548696830241568, 0.396817504681849 ], [ 115.54946403377744, 0.397073239193807 ], [ 115.550267770815026, 0.397475107712598 ], [ 115.551473376371391, 0.397950043234805 ], [ 115.55231364691069, 0.398205777746763 ], [ 115.552788582432896, 0.39868071326897 ], [ 115.553336584958515, 0.399265249296302 ], [ 115.553884587484134, 0.400251653842425 ], [ 115.554396056508054, 0.401018857378298 ], [ 115.554505657013181, 0.401786060914171 ], [ 115.554651791020007, 0.402516730948336 ], [ 115.554213388999514, 0.403028199972252 ], [ 115.553701919975595, 0.403539668996167 ], [ 115.553921120985848, 0.404197272026916 ], [ 115.554359523006354, 0.405220210074747 ], [ 115.554322989504641, 0.406389282129411 ], [ 115.554249922501228, 0.407558354184075 ], [ 115.554103788494388, 0.408362091221657 ], [ 115.553957654487562, 0.408910093747281 ], [ 115.554030721490975, 0.409604230279737 ], [ 115.554030721490975, 0.410188766307069 ], [ 115.553957654487562, 0.410736768832693 ], [ 115.553592319470468, 0.411175170853192 ], [ 115.553446185463642, 0.412015441392482 ], [ 115.553300051456802, 0.412673044423231 ], [ 115.553300051456802, 0.413440247959104 ], [ 115.553117383948262, 0.414061317488144 ], [ 115.553117383948262, 0.414791987522309 ], [ 115.553117383948262, 0.415778392068432 ], [ 115.553153917449976, 0.416764796614555 ], [ 115.552934716439722, 0.417605067153845 ], [ 115.553007783443135, 0.418153069679468 ], [ 115.553373118460229, 0.418591471699967 ], [ 115.553336584958515, 0.419395208737549 ], [ 115.552642448426056, 0.420198945775131 ], [ 115.552130979402151, 0.420783481802463 ], [ 115.551546443374818, 0.421477618334919 ], [ 115.551473376371391, 0.422317888874209 ], [ 115.551582976876517, 0.423121625911791 ], [ 115.551254175361152, 0.42356002793229 ], [ 115.55165604387993, 0.424144563959622 ], [ 115.55198484539531, 0.424582965980121 ], [ 115.551838711388484, 0.425605904027952 ], [ 115.55165604387993, 0.42648270806895 ], [ 115.551473376371391, 0.42732297860824 ], [ 115.551181108357724, 0.42816324914753 ], [ 115.550669639333819, 0.428893919181695 ], [ 115.55026777081504, 0.42940538820561 ], [ 115.54993896929966, 0.43002645773465 ], [ 115.549646701285994, 0.430574460260274 ], [ 115.549646701285994, 0.431414730799564 ], [ 115.549646701285994, 0.432401135345687 ], [ 115.549683234787707, 0.433351006390101 ], [ 115.549719768289421, 0.434227810431099 ], [ 115.54975630179112, 0.434921946963556 ], [ 115.55026777081504, 0.435543016492597 ], [ 115.551181108357753, 0.436419820533595 ], [ 115.551729110883372, 0.437187024069468 ], [ 115.552204046405578, 0.4377715600968 ], [ 115.552678981927784, 0.438575297134382 ], [ 115.552898182938037, 0.439488634677088 ], [ 115.552605914924371, 0.440365438718086 ], [ 115.552386713914117, 0.441096108752251 ], [ 115.552532847920958, 0.441644111277875 ], [ 115.552934716439736, 0.442119046800082 ], [ 115.55330005145683, 0.442411314813748 ], [ 115.55308572298982, 0.443370927206349 ], [ 115.55308572298982, 0.444560657709265 ], [ 115.55308572298982, 0.445512442111597 ], [ 115.553323669090403, 0.446285766938492 ], [ 115.554037507392152, 0.446880632189949 ], [ 115.555108264844776, 0.447059091765386 ], [ 115.556238508822545, 0.447534983966552 ], [ 115.556892860599149, 0.448605741419176 ], [ 115.5561790222974, 0.449973931497529 ], [ 115.555227237895068, 0.450628283274132 ], [ 115.553918534341861, 0.451282635050735 ], [ 115.552371884688071, 0.452115446402776 ], [ 115.551420100285739, 0.452710311654233 ], [ 115.550884721559427, 0.453186203855399 ], [ 115.549873450631949, 0.45360260953142 ], [ 115.549100125805055, 0.453900042157149 ], [ 115.548981152754763, 0.454613880458898 ], [ 115.549992423682241, 0.455149259185209 ], [ 115.551003694609719, 0.455803610961813 ], [ 115.551955479012051, 0.456695908838999 ], [ 115.55225291163778, 0.457290774090457 ], [ 115.552490857738363, 0.458302045017935 ], [ 115.552371884688071, 0.459372802470558 ], [ 115.552371884688071, 0.461038425174639 ], [ 115.551895992486905, 0.461990209576972 ], [ 115.551598559861176, 0.462882507454158 ], [ 115.551420100285739, 0.463655832281053 ], [ 115.552014965537197, 0.464310184057656 ], [ 115.552847776889237, 0.464726589733676 ], [ 115.553145209514966, 0.465440428035425 ], [ 115.55308572298982, 0.466273239387466 ], [ 115.553026236464675, 0.467046564214361 ], [ 115.553145209514966, 0.467462969890381 ], [ 115.553859047816715, 0.468057835141839 ], [ 115.554156480442444, 0.468712186918442 ], [ 115.554870318744193, 0.4693070521699 ], [ 115.555822103146525, 0.470496782672815 ], [ 115.55659542797342, 0.47168651317573 ], [ 115.557249779750023, 0.472876243678645 ], [ 115.557844645001481, 0.474303920282143 ], [ 115.558439510252938, 0.475969542986225 ], [ 115.558796429403813, 0.477635165690306 ], [ 115.559510267705562, 0.479062842293804 ], [ 115.559748213806145, 0.480371545847011 ], [ 115.559688727280999, 0.481442303299634 ], [ 115.559748213806145, 0.482215628126529 ], [ 115.559926673381582, 0.483226899054007 ], [ 115.559867186856437, 0.484178683456339 ], [ 115.560343079057603, 0.48501149480838 ], [ 115.561056917359352, 0.485725333110129 ], [ 115.562008701761684, 0.485725333110129 ], [ 115.562722540063433, 0.485487387009546 ], [ 115.563019972689162, 0.484595089132359 ], [ 115.563912270566348, 0.484416629556922 ], [ 115.56486405496868, 0.484238169981485 ], [ 115.565696866320721, 0.484059710406048 ], [ 115.566708137248199, 0.484476116082068 ], [ 115.567897867751114, 0.484535602607214 ], [ 115.568968625203738, 0.484297656506631 ], [ 115.570812707483256, 0.484178683456339 ], [ 115.572061924511317, 0.483762277780319 ], [ 115.573430114589669, 0.483702791255173 ], [ 115.574738818142876, 0.483702791255173 ], [ 115.576285467796666, 0.483940737355756 ], [ 115.577475198299581, 0.483821764305465 ], [ 115.578248523126476, 0.483405358629444 ], [ 115.578783901852788, 0.482632033802549 ], [ 115.579705942992547, 0.482869979903133 ], [ 115.58077670044517, 0.483345872104299 ], [ 115.581787971372648, 0.483821764305465 ], [ 115.582680269249835, 0.484238169981485 ], [ 115.583572567127021, 0.484476116082068 ], [ 115.584524351529353, 0.483762277780319 ], [ 115.585297676356248, 0.482810493377987 ], [ 115.585773568557414, 0.482156141601383 ], [ 115.586606379909455, 0.482394087701966 ], [ 115.587201245160912, 0.482988952953424 ], [ 115.588153029563244, 0.484059710406048 ], [ 115.588747894814702, 0.484297656506631 ], [ 115.589699679217034, 0.483583818204882 ], [ 115.590651463619366, 0.483405358629444 ], [ 115.591127355820532, 0.483821764305465 ], [ 115.59172222107199, 0.484833035232943 ], [ 115.592317086323447, 0.485249440908963 ], [ 115.593209384200634, 0.485725333110129 ], [ 115.593982709027529, 0.485368413959254 ], [ 115.594815520379569, 0.484833035232943 ], [ 115.595767304781901, 0.484773548707797 ], [ 115.596838062234525, 0.484773548707797 ], [ 115.597789846636857, 0.484595089132359 ], [ 115.598741631039189, 0.484535602607214 ], [ 115.599217523240355, 0.48501149480838 ], [ 115.600347767218125, 0.485808614245333 ], [ 115.602917585104422, 0.486094149566032 ], [ 115.604773564688969, 0.485951381905683 ], [ 115.606344008952817, 0.485665846584983 ], [ 115.607628917895966, 0.485523078924633 ], [ 115.609199362159814, 0.486094149566032 ], [ 115.610055968121912, 0.48795012915058 ], [ 115.610912574084011, 0.490234411716177 ], [ 115.611483644725411, 0.493089764923174 ], [ 115.612483018347859, 0.494660209187022 ], [ 115.613910694951358, 0.496516188771569 ], [ 115.616194977516955, 0.498514936016467 ] ] } }
]
}
